TIANMU-1 07             
1 57399U 23101A   26065.57454230  .00008352  00000+0  29795-3 0  9991
2 57399  97.2728 118.5929 0004609 142.4105 217.7458 15.29118809145964
STARLINK-30405          
1 57851U 23141M   26068.86895951  .00000365  00000+0  24466-4 0  9999
2 57851  53.1592 283.3656 0001154  66.8260 293.2862 15.30185985140355
